HAWK-C                  
1 43799U 18099AT  26068.67261865  .00009431  00000+0  35663-3 0  9994
2 43799  97.4027 122.6817 0040363 277.4052  82.2601 15.26407167398720
STARLINK-31576          
1 59208U 24046H   26068.50294241  .00000954  00000+0  44330-4 0  9994
2 59208  53.1608 156.0151 0001232  99.3978 260.7162 15.30187912113029
